{"type": "FeatureCollection", "features": [ {"type": "Feature", "properties": {"norad_id": 39122, "name": "EUTELSAT 117 WEST A", "group": "eutelsat", "lat": 0.0014178459337142516, "lon": 147.799460373908, "alt_km": 35792.85186481173, "timestamp": "2025-12-22T11:33:20.100634+00:00", "meta": {"OBJECT_NAME": "EUTELSAT 117 WEST A", "OBJECT_ID": "2013-012A", "EPOCH": "2025-12-22T03:47:38.886144", "MEAN_MOTION": 1.00270618, "ECCENTRICITY": 0.0002614, "INCLINATION": 0.0262, "RA_OF_ASC_NODE": 307.6544, "ARG_OF_PERICENTER": 325.7894, "MEAN_ANOMALY": 117.6484, "EPHEMERIS_TYPE": 0, "CLASSIFICATION_TYPE": "U", "NORAD_CAT_ID": 39122, "ELEMENT_SET_NO": 999, "REV_AT_EPOCH": 4665, "BSTAR": 0, "MEAN_MOTION_DOT": 9e-08, "MEAN_MOTION_DDOT": 0}, "tle": {"line1": "1 39122U 13012A   25356.15808896  .00000009  00000+0  00000+0 0  9997", "line2": "2 39122   0.0262 307.6544 0002614 325.7894 117.6484  1.00270618 46656"}}, "geometry": {"type": "Point", "coordinates": [147.799460373908, 0.0014178459337142516]}}, {"type": "Feature", "properties": {"norad_id": 39163, "name": "EUTELSAT 7B", "group": "eutelsat", "lat": -0.09101168657937528, "lon": -88.43374644895464, "alt_km": 35774.36433915207, "timestamp": "2025-12-22T11:33:20.100646+00:00", "meta": {"OBJECT_NAME": "EUTELSAT 7B", "OBJECT_ID": "2013-022A", "EPOCH": "2025-12-22T03:54:38.524032", "MEAN_MOTION": 1.0027115, "ECCENTRICITY": 0.0004424, "INCLINATION": 0.0652, "RA_OF_ASC_NODE": 2.8658, "ARG_OF_PERICENTER": 319.3694, "MEAN_ANOMALY": 194.3909, "EPHEMERIS_TYPE": 0, "CLASSIFICATION_TYPE": "U", "NORAD_CAT_ID": 39163, "ELEMENT_SET_NO": 999, "REV_AT_EPOCH": 4617, "BSTAR": 0, "MEAN_MOTION_DOT": 7e-07, "MEAN_MOTION_DDOT": 0}, "tle": {"line1": "1 39163U 13022A   25356.16294588  .00000070  00000+0  00000+0 0  9999", "line2": "2 39163   0.0652   2.8658 0004424 319.3694 194.3909  1.00271150 46175"}}, "geometry": {"type": "Point", "coordinates": [-88.43374644895464, -0.09101168657937528]}}, {"type": "Feature", "properties": {"norad_id": 39612, "name": "EXPRESS-AT1", "group": "eutelsat", "lat": -0.02504375922921904, "lon": -39.392805159244425, "alt_km": 35789.16657474215, "timestamp": "2025-12-22T11:33:20.100658+00:00", "meta": {"OBJECT_NAME": "EXPRESS-AT1", "OBJECT_ID": "2014-010A", "EPOCH": "2025-12-22T01:26:53.727648", "MEAN_MOTION": 1.00271765, "ECCENTRICITY": 7.4e-05, "INCLINATION": 0.0237, "RA_OF_ASC_NODE": 345.2745, "ARG_OF_PERICENTER": 151.4807, "MEAN_ANOMALY": 31.835, "EPHEMERIS_TYPE": 0, "CLASSIFICATION_TYPE": "U", "NORAD_CAT_ID": 39612, "ELEMENT_SET_NO": 999, "REV_AT_EPOCH": 4304, "BSTAR": 0, "MEAN_MOTION_DOT": 0, "MEAN_MOTION_DDOT": 0}, "tle": {"line1": "1 39612U 14010A   25356.06034407  .00000000  00000+0  00000+0 0  9990", "line2": "2 39612   0.0237 345.2745 0000740 151.4807  31.8350  1.00271765 43042"}}, "geometry": {"type": "Point", "coordinates": [-39.392805159244425, -0.02504375922921904]}}, {"type": "Feature", "properties": {"norad_id": 39613, "name": "EXPRESS-AT2", "group": "eutelsat", "lat": 0.024080818493801004, "lon": 44.47681776326745, "alt_km": 35788.885461566315, "timestamp": "2025-12-22T11:33:20.100670+00:00", "meta": {"OBJECT_NAME": "EXPRESS-AT2", "OBJECT_ID": "2014-010B", "EPOCH": "2025-12-22T05:16:15.980160", "MEAN_MOTION": 1.00273914, "ECCENTRICITY": 0.0001432, "INCLINATION": 0.0181, "RA_OF_ASC_NODE": 291.7658, "ARG_OF_PERICENTER": 349.0197, "MEAN_ANOMALY": 29.1578, "EPHEMERIS_TYPE": 0, "CLASSIFICATION_TYPE": "U", "NORAD_CAT_ID": 39613, "ELEMENT_SET_NO": 999, "REV_AT_EPOCH": 4272, "BSTAR": 0, "MEAN_MOTION_DOT": -2.59e-06, "MEAN_MOTION_DDOT": 0}, "tle": {"line1": "1 39613U 14010B   25356.21962940 -.00000259  00000+0  00000+0 0  9997", "line2": "2 39613   0.0181 291.7658 0001432 349.0197  29.1578  1.00273914 42729"}}, "geometry": {"type": "Point", "coordinates": [44.47681776326745, 0.024080818493801004]}}, {"type": "Feature", "properties": {"norad_id": 39773, "name": "EUTELSAT 3B", "group": "eutelsat", "lat": -0.08548217083440882, "lon": -92.26046433001095, "alt_km": 35771.19543889381, "timestamp": "2025-12-22T11:33:20.100681+00:00", "meta": {"OBJECT_NAME": "EUTELSAT 3B", "OBJECT_ID": "2014-030A", "EPOCH": "2025-12-22T01:11:47.674176", "MEAN_MOTION": 1.00272787, "ECCENTRICITY": 0.0004142, "INCLINATION": 0.0612, "RA_OF_ASC_NODE": 10.0984, "ARG_OF_PERICENTER": 223.9018, "MEAN_ANOMALY": 237.9083, "EPHEMERIS_TYPE": 0, "CLASSIFICATION_TYPE": "U", "NORAD_CAT_ID": 39773, "ELEMENT_SET_NO": 999, "REV_AT_EPOCH": 4229, "BSTAR": 0, "MEAN_MOTION_DOT": 4.2e-07, "MEAN_MOTION_DDOT": 0}, "tle": {"line1": "1 39773U 14030A   25356.04985734  .00000042  00000+0  00000+0 0  9992", "line2": "2 39773   0.0612  10.0984 0004142 223.9018 237.9083  1.00272787 42291"}}, "geometry": {"type": "Point", "coordinates": [-92.26046433001095, -0.08548217083440882]}}, {"type": "Feature", "properties": {"norad_id": 40425, "name": "EUTELSAT 115 WEST B", "group": "eutelsat", "lat": -0.004495216530361089, "lon": 149.70226695908522, "alt_km": 35787.79820489068, "timestamp": "2025-12-22T11:33:20.100693+00:00", "meta": {"OBJECT_NAME": "EUTELSAT 115 WEST B", "OBJECT_ID": "2015-010B", "EPOCH": "2025-12-21T14:21:48.555360", "MEAN_MOTION": 1.00270264, "ECCENTRICITY": 3.32e-05, "INCLINATION": 0.0122, "RA_OF_ASC_NODE": 156.3185, "ARG_OF_PERICENTER": 153.7711, "MEAN_ANOMALY": 240.874, "EPHEMERIS_TYPE": 0, "CLASSIFICATION_TYPE": "U", "NORAD_CAT_ID": 40425, "ELEMENT_SET_NO": 999, "REV_AT_EPOCH": 3961, "BSTAR": 0, "MEAN_MOTION_DOT": -2e-08, "MEAN_MOTION_DDOT": 0}, "tle": {"line1": "1 40425U 15010B   25355.59847865 -.00000002  00000+0  00000+0 0  9995", "line2": "2 40425   0.0122 156.3185 0000332 153.7711 240.8740  1.00270264 39610"}}, "geometry": {"type": "Point", "coordinates": [149.70226695908522, -0.004495216530361089]}}, {"type": "Feature", "properties": {"norad_id": 40875, "name": "EUTELSAT 8 WEST B", "group": "eutelsat", "lat": -0.08570150620320775, "lon": -103.40008474003655, "alt_km": 35768.87726715218, "timestamp": "2025-12-22T11:33:20.100709+00:00", "meta": {"OBJECT_NAME": "EUTELSAT 8 WEST B", "OBJECT_ID": "2015-039B", "EPOCH": "2025-12-22T01:08:32.983872", "MEAN_MOTION": 1.00271144, "ECCENTRICITY": 0.0004255, "INCLINATION": 0.0633, "RA_OF_ASC_NODE": 1.8331, "ARG_OF_PERICENTER": 270.0708, "MEAN_ANOMALY": 188.0933, "EPHEMERIS_TYPE": 0, "CLASSIFICATION_TYPE": "U", "NORAD_CAT_ID": 40875, "ELEMENT_SET_NO": 999, "REV_AT_EPOCH": 3788, "BSTAR": 0, "MEAN_MOTION_DOT": -4.4e-07, "MEAN_MOTION_DDOT": 0}, "tle": {"line1": "1 40875U 15039B   25356.04760398 -.00000044  00000+0  00000+0 0  9997", "line2": "2 40875   0.0633   1.8331 0004255 270.0708 188.0933  1.00271144 37882"}}, "geometry": {"type": "Point", "coordinates": [-103.40008474003655, -0.08570150620320775]}}, {"type": "Feature", "properties": {"norad_id": 41310, "name": "EUTELSAT 9B", "group": "eutelsat", "lat": -0.045273676218023966, "lon": -86.38716587217472, "alt_km": 35766.61211401989, "timestamp": "2025-12-22T11:33:20.100736+00:00", "meta": {"OBJECT_NAME": "EUTELSAT 9B", "OBJECT_ID": "2016-005A", "EPOCH": "2025-12-22T03:54:38.524032", "MEAN_MOTION": 1.00273048, "ECCENTRICITY": 0.0004511, "INCLINATION": 0.0657, "RA_OF_ASC_NODE": 72.7349, "ARG_OF_PERICENTER": 203.4472, "MEAN_ANOMALY": 242.4516, "EPHEMERIS_TYPE": 0, "CLASSIFICATION_TYPE": "U", "NORAD_CAT_ID": 41310, "ELEMENT_SET_NO": 999, "REV_AT_EPOCH": 3634, "BSTAR": 0, "MEAN_MOTION_DOT": 8.4e-07, "MEAN_MOTION_DDOT": 0}, "tle": {"line1": "1 41310U 16005A   25356.16294588  .00000084  00000+0  00000+0 0  9995", "line2": "2 41310   0.0657  72.7349 0004511 203.4472 242.4516  1.00273048 36349"}}, "geometry": {"type": "Point", "coordinates": [-86.38716587217472, -0.045273676218023966]}}, {"type": "Feature", "properties": {"norad_id": 41382, "name": "EUTELSAT 65 WEST A", "group": "eutelsat", "lat": -0.042880003041949714, "lon": -160.60141775550207, "alt_km": 35783.24602924666, "timestamp": "2025-12-22T11:33:20.100759+00:00", "meta": {"OBJECT_NAME": "EUTELSAT 65 WEST A", "OBJECT_ID": "2016-014A", "EPOCH": "2025-12-22T02:52:34.519008", "MEAN_MOTION": 1.00273391, "ECCENTRICITY": 0.0002157, "INCLINATION": 0.0511, "RA_OF_ASC_NODE": 336.2464, "ARG_OF_PERICENTER": 297.7404, "MEAN_ANOMALY": 154.8949, "EPHEMERIS_TYPE": 0, "CLASSIFICATION_TYPE": "U", "NORAD_CAT_ID": 41382, "ELEMENT_SET_NO": 999, "REV_AT_EPOCH": 3576, "BSTAR": 0, "MEAN_MOTION_DOT": -2.54e-06, "MEAN_MOTION_DDOT": 0}, "tle": {"line1": "1 41382U 16014A   25356.11984397 -.00000254  00000+0  00000+0 0  9993", "line2": "2 41382   0.0511 336.2464 0002157 297.7404 154.8949  1.00273391 35760"}}, "geometry": {"type": "Point", "coordinates": [-160.60141775550207, -0.042880003041949714]}}, {"type": "Feature", "properties": {"norad_id": 41589, "name": "EUTELSAT 117 WEST B", "group": "eutelsat", "lat": -0.005277297433791842, "lon": 147.6174177939079, "alt_km": 35786.15030824457, "timestamp": "2025-12-22T11:33:20.100772+00:00", "meta": {"OBJECT_NAME": "EUTELSAT 117 WEST B", "OBJECT_ID": "2016-038B", "EPOCH": "2025-12-22T03:47:43.899936", "MEAN_MOTION": 1.00273597, "ECCENTRICITY": 2.95e-05, "INCLINATION": 0.01, "RA_OF_ASC_NODE": 152.2432, "ARG_OF_PERICENTER": 113.2739, "MEAN_ANOMALY": 125.389, "EPHEMERIS_TYPE": 0, "CLASSIFICATION_TYPE": "U", "NORAD_CAT_ID": 41589, "ELEMENT_SET_NO": 999, "REV_AT_EPOCH": 3488, "BSTAR": 0, "MEAN_MOTION_DOT": 1e-07, "MEAN_MOTION_DDOT": 0}, "tle": {"line1": "1 41589U 16038B   25356.15814699  .00000010  00000+0  00000+0 0  9998", "line2": "2 41589   0.0100 152.2432 0000295 113.2739 125.3890  1.00273597 34886"}}, "geometry": {"type": "Point", "coordinates": [147.6174177939079, -0.005277297433791842]}}]}